[{"OBJECT_NAME":"PRAETORIAN SDA_601","OBJECT_ID":"2025-203W","EPOCH":"2026-03-09T14:36:57.334752","MEAN_MOTION":13.83485126,"ECCENTRICITY":0.0006541,"INCLINATION":81.3004,"RA_OF_ASC_NODE":103.1096,"ARG_OF_PERICENTER":109.4555,"MEAN_ANOMALY":250.7309,"EPHEMERIS_TYPE":0,"CLASSIFICATION_TYPE":"U","NORAD_CAT_ID":65585,"ELEMENT_SET_NO":999,"REV_AT_EPOCH":2491,"BSTAR":-2.5722e-5,"MEAN_MOTION_DOT":-1.6e-7,"MEAN_MOTION_DDOT":0},{"OBJECT_NAME":"BREEZE-KM R\/B","OBJECT_ID":"2019-057B","EPOCH":"2026-03-09T21:45:41.622336","MEAN_MOTION":14.25496635,"ECCENTRICITY":0.0198118,"INCLINATION":99.147,"RA_OF_ASC_NODE":209.9225,"ARG_OF_PERICENTER":258.8553,"MEAN_ANOMALY":99.0295,"EPHEMERIS_TYPE":0,"CLASSIFICATION_TYPE":"U","NORAD_CAT_ID":44518,"ELEMENT_SET_NO":999,"REV_AT_EPOCH":33940,"BSTAR":8.1555868e-5,"MEAN_MOTION_DOT":1.82e-6,"MEAN_MOTION_DDOT":0}]
